{"fetched_at":"2026-07-07T18:29:06.539Z","source":"https://celestrak.org/NORAD/elements/gp.php?GROUP=oneweb&FORMAT=JSON","constellation":"oneweb","records":[{"OBJECT_NAME":"ONEWEB-0567","OBJECT_ID":"2023-004H","EPOCH":"2026-07-06T22:34:33.343680","CLASSIFICATION_TYPE":"U","MEAN_MOTION":13.18687115,"ECCENTRICITY":0.0002216,"INCLINATION":87.9179,"RA_OF_ASC_NODE":331.54,"ARG_OF_PERICENTER":101.1912,"MEAN_ANOMALY":258.9469,"EPHEMERIS_TYPE":0,"NORAD_CAT_ID":55147,"ELEMENT_SET_NO":999,"REV_AT_EPOCH":17230,"BSTAR":0.00001665,"MEAN_MOTION_DOT":1.9e-7,"MEAN_MOTION_DDOT":0},{"OBJECT_NAME":"ONEWEB-0569","OBJECT_ID":"2023-004J","EPOCH":"2026-07-07T08:20:27.556224","CLASSIFICATION_TYPE":"U","MEAN_MOTION":13.13470728,"ECCENTRICITY":0.0002526,"INCLINATION":87.8984,"RA_OF_ASC_NODE":316.2081,"ARG_OF_PERICENTER":118.2767,"MEAN_ANOMALY":241.8618,"EPHEMERIS_TYPE":0,"NORAD_CAT_ID":55148,"ELEMENT_SET_NO":999,"REV_AT_EPOCH":17282,"BSTAR":0.00095191,"MEAN_MOTION_DOT":0.0000036,"MEAN_MOTION_DDOT":0},{"OBJECT_NAME":"ONEWEB-0570","OBJECT_ID":"2023-004K","EPOCH":"2026-07-06T22:22:24.627936","CLASSIFICATION_TYPE":"U","MEAN_MOTION":13.18686804,"ECCENTRICITY":0.000214,"INCLINATION":87.9179,"RA_OF_ASC_NODE":331.5395,"ARG_OF_PERICENTER":88.4072,"MEAN_ANOMALY":271.7305,"EPHEMERIS_TYPE":0,"NORAD_CAT_ID":55149,"ELEMENT_SET_NO":999,"REV_AT_EPOCH":17229,"BSTAR":0.00010469,"MEAN_MOTION_DOT":5.4e-7,"MEAN_MOTION_DDOT":0},{"OBJECT_NAME":"ONEWEB-0571","OBJECT_ID":"2023-004L","EPOCH":"2026-07-07T09:08:16.950336","CLASSIFICATION_TYPE":"U","MEAN_MOTION":13.18685437,"ECCENTRICITY":0.0003028,"INCLINATION":87.918,"RA_OF_ASC_NODE":331.45,"ARG_OF_PERICENTER":108.3259,"MEAN_ANOMALY":251.8202,"EPHEMERIS_TYPE":0,"NORAD_CAT_ID":55150,"ELEMENT_SET_NO":999,"REV_AT_EPOCH":17236,"BSTAR":0.000012084,"MEAN_MOTION_DOT":1.8e-7,"MEAN_MOTION_DDOT":0},{"OBJECT_NAME":"ONEWEB-0572","OBJECT_ID":"2023-004M","EPOCH":"2026-07-06T21:11:37.292928","CLASSIFICATION_TYPE":"U","MEAN_MOTION":13.17651069,"ECCENTRICITY":0.0002012,"INCLINATION":87.9139,"RA_OF_ASC_NODE":1.9466,"ARG_OF_PERICENTER":91.6652,"MEAN_ANOMALY":268.471,"EPHEMERIS_TYPE":0,"NORAD_CAT_ID":55151,"ELEMENT_SET_NO":999,"REV_AT_EPOCH":17007,"BSTAR":0.000060255,"MEAN_MOTION_DOT":3.6e-7,"MEAN_MOTION_DDOT":0},{"OBJECT_NAME":"ONEWEB-0573","OBJECT_ID":"2023-004N","EPOCH":"2026-07-07T08:58:32.774880","CLASSIFICATION_TYPE":"U","MEAN_MOTION":13.18687236,"ECCENTRICITY":0.0002733,"INCLINATION":87.9179,"RA_OF_ASC_NODE":331.4529,"ARG_OF_PERICENTER":102.1865,"MEAN_ANOMALY":257.9573,"EPHEMERIS_TYPE":0,"NORAD_CAT_ID":55152,"ELEMENT_SET_NO":999,"REV_AT_EPOCH":17235,"BSTAR":0.000033018,"MEAN_MOTION_DOT":2.6e-7,"MEAN_MOTION_DDOT":0},{"OBJECT_NAME":"ONEWEB-0588","OBJECT_ID":"2023-004P","EPOCH":"2026-07-07T08:48:51.302016","CLASSIFICATION_TYPE":"U","MEAN_MOTION":13.1868599,"ECCENTRICITY":0.0002267,"INCLINATION":87.918,"RA_OF_ASC_NODE":331.454,"ARG_OF_PERICENTER":87.3965,"MEAN_ANOMALY":272.7426,"EPHEMERIS_TYPE":0,"NORAD_CAT_ID":55153,"ELEMENT_SET_NO":999,"REV_AT_EPOCH":17235,"BSTAR":-7.3047e-7,"MEAN_MOTION_DOT":1.3e-7,"MEAN_MOTION_DDOT":0},{"OBJECT_NAME":"ONEWEB-0598","OBJECT_ID":"2023-004Q","EPOCH":"2026-07-07T10:55:29.623008","CLASSIFICATION_TYPE":"U","MEAN_MOTION":13.11414255,"ECCENTRICITY":0.0002363,"INCLINATION":87.8879,"RA_OF_ASC_NODE":17.0324,"ARG_OF_PERICENTER":103.8441,"MEAN_ANOMALY":256.295,"EPHEMERIS_TYPE":0,"NORAD_CAT_ID":55154,"ELEMENT_SET_NO":999,"REV_AT_EPOCH":16855,"BSTAR":0.00018307,"MEAN_MOTION_DOT":7.8e-7,"MEAN_MOTION_DDOT":0},{"OBJECT_NAME":"ONEWEB-0599","OBJECT_ID":"2023-004R","EPOCH":"2026-07-07T10:50:29.920416","CLASSIFICATION_TYPE":"U","MEAN_MOTION":13.17649601,"ECCENTRICITY":0.0001785,"INCLINATION":87.9137,"RA_OF_ASC_NODE":1.8318,"ARG_OF_PERICENTER":97.8734,"MEAN_ANOMALY":262.2601,"EPHEMERIS_TYPE":0,"NORAD_CAT_ID":55155,"ELEMENT_SET_NO":999,"REV_AT_EPOCH":17015,"BSTAR":-0.000011904,"MEAN_MOTION_DOT":8e-8,"MEAN_MOTION_DDOT":0},{"OBJECT_NAME":"ONEWEB-0614","OBJECT_ID":"2023-004S","EPOCH":"2026-07-07T10:48:10.151136","CLASSIFICATION_TYPE":"U","MEAN_MOTION":13.11414581,"ECCENTRICITY":0.000187,"INCLINATION":87.8875,"RA_OF_ASC_NODE":17.0417,"ARG_OF_PERICENTER":82.9867,"MEAN_ANOMALY":277.1474,"EPHEMERIS_TYPE":0,"NORAD_CAT_ID":55156,"ELEMENT_SET_NO":999,"REV_AT_EPOCH":16849,"BSTAR":0.00073571,"MEAN_MOTION_DOT":0.00000273,"MEAN_MOTION_DDOT":0},{"OBJECT_NAME":"ONEWEB-0616","OBJECT_ID":"2023-004T","EPOCH":"2026-07-07T10:01:54.012000","CLASSIFICATION_TYPE":"U","MEAN_MOTION":13.17650356,"ECCENTRICITY":0.0001396,"INCLINATION":87.9139,"RA_OF_ASC_NODE":1.8424,"ARG_OF_PERICENTER":121.0198,"MEAN_ANOMALY":239.1071,"EPHEMERIS_TYPE":0,"NORAD_CAT_ID":55157,"ELEMENT_SET_NO":999,"REV_AT_EPOCH":17036,"BSTAR":0.00010251,"MEAN_MOTION_DOT":5.3e-7,"MEAN_MOTION_DDOT":0},{"OBJECT_NAME":"ONEWEB-0617","OBJECT_ID":"2023-004U","EPOCH":"2026-07-06T21:42:00.860832","CLASSIFICATION_TYPE":"U","MEAN_MOTION":13.11416547,"ECCENTRICITY":0.0002092,"INCLINATION":87.8883,"RA_OF_ASC_NODE":17.1426,"ARG_OF_PERICENTER":79.9884,"MEAN_ANOMALY":280.148,"EPHEMERIS_TYPE":0,"NORAD_CAT_ID":55158,"ELEMENT_SET_NO":999,"REV_AT_EPOCH":16844,"BSTAR":0.0015136,"MEAN_MOTION_DOT":0.00000549,"MEAN_MOTION_DDOT":0},{"OBJECT_NAME":"ONEWEB-0618","OBJECT_ID":"2023-004V","EPOCH":"2026-07-07T05:28:30.501120","CLASSIFICATION_TYPE":"U","MEAN_MOTION":15.13327062,"ECCENTRICITY":0.0011003,"INCLINATION":86.9099,"RA_OF_ASC_NODE":169.4967,"ARG_OF_PERICENTER":205.6608,"MEAN_ANOMALY":154.4088,"EPHEMERIS_TYPE":0,"NORAD_CAT_ID":55159,"ELEMENT_SET_NO":999,"REV_AT_EPOCH":18529,"BSTAR":0.00021796,"MEAN_MOTION_DOT":0.00003919,"MEAN_MOTION_DDOT":0},{"OBJECT_NAME":"ONEWEB-0619","OBJECT_ID":"2023-004W","EPOCH":"2026-07-07T10:48:04.237056","CLASSIFICATION_TYPE":"U","MEAN_MOTION":13.17650128,"ECCENTRICITY":0.0001551,"INCLINATION":87.9149,"RA_OF_ASC_NODE":1.8186,"ARG_OF_PERICENTER":82.1315,"MEAN_ANOMALY":277.9992,"EPHEMERIS_TYPE":0,"NORAD_CAT_ID":55160,"ELEMENT_SET_NO":999,"REV_AT_EPOCH":17026,"BSTAR":0.000019845,"MEAN_MOTION_DOT":2.1e-7,"MEAN_MOTION_DDOT":0},{"OBJECT_NAME":"ONEWEB-0620","OBJECT_ID":"2023-004X","EPOCH":"2026-07-06T23:24:33.328800","CLASSIFICATION_TYPE":"U","MEAN_MOTION":13.11416838,"ECCENTRICITY":0.0002107,"INCLINATION":87.8876,"RA_OF_ASC_NODE":17.136,"ARG_OF_PERICENTER":91.3252,"MEAN_ANOMALY":268.8117,"EPHEMERIS_TYPE":0,"NORAD_CAT_ID":55161,"ELEMENT_SET_NO":999,"REV_AT_EPOCH":16842,"BSTAR":0.0015451,"MEAN_MOTION_DOT":0.0000056,"MEAN_MOTION_DDOT":0},{"OBJECT_NAME":"ONEWEB-0621","OBJECT_ID":"2023-004Y","EPOCH":"2026-07-07T11:02:48.680160","CLASSIFICATION_TYPE":"U","MEAN_MOTION":13.11414582,"ECCENTRICITY":0.0001832,"INCLINATION":87.8886,"RA_OF_ASC_NODE":17.03,"ARG_OF_PERICENTER":83.287,"MEAN_ANOMALY":276.8467,"EPHEMERIS_TYPE":0,"NORAD_CAT_ID":55162,"ELEMENT_SET_NO":999,"REV_AT_EPOCH":16846,"BSTAR":-0.00040184,"MEAN_MOTION_DOT":-0.0000013,"MEAN_MOTION_DDOT":0},{"OBJECT_NAME":"ONEWEB-0622","OBJECT_ID":"2023-004Z","EPOCH":"2026-07-07T11:10:08.145120","CLASSIFICATION_TYPE":"U","MEAN_MOTION":13.11414996,"ECCENTRICITY":0.0002393,"INCLINATION":87.8889,"RA_OF_ASC_NODE":17.0317,"ARG_OF_PERICENTER":76.9531,"MEAN_ANOMALY":283.1864,"EPHEMERIS_TYPE":0,"NORAD_CAT_ID":55163,"ELEMENT_SET_NO":999,"REV_AT_EPOCH":16845,"BSTAR":-0.0010529,"MEAN_MOTION_DOT":-0.0000036,"MEAN_MOTION_DDOT":0},{"OBJECT_NAME":"ONEWEB-0623","OBJECT_ID":"2023-004AA","EPOCH":"2026-07-06T21:55:19.883712","CLASSIFICATION_TYPE":"U","MEAN_MOTION":13.17647744,"ECCENTRICITY":0.0001989,"INCLINATION":87.9135,"RA_OF_ASC_NODE":1.9533,"ARG_OF_PERICENTER":67.5462,"MEAN_ANOMALY":292.588,"EPHEMERIS_TYPE":0,"NORAD_CAT_ID":55164,"ELEMENT_SET_NO":999,"REV_AT_EPOCH":17018,"BSTAR":0.000163,"MEAN_MOTION_DOT":7.6e-7,"MEAN_MOTION_DDOT":0},{"OBJECT_NAME":"ONEWEB-0624","OBJECT_ID":"2023-004AB","EPOCH":"2026-07-07T09:21:59.277888","CLASSIFICATION_TYPE":"U","MEAN_MOTION":13.12928853,"ECCENTRICITY":0.0001796,"INCLINATION":87.8959,"RA_OF_ASC_NODE":346.5639,"ARG_OF_PERICENTER":90.2466,"MEAN_ANOMALY":269.8869,"EPHEMERIS_TYPE":0,"NORAD_CAT_ID":55165,"ELEMENT_SET_NO":999,"REV_AT_EPOCH":17072,"BSTAR":-0.00091843,"MEAN_MOTION_DOT":-0.0000032,"MEAN_MOTION_DDOT":0},{"OBJECT_NAME":"ONEWEB-0625","OBJECT_ID":"2023-004AC","EPOCH":"2026-07-07T10:26:11.956704","CLASSIFICATION_TYPE":"U","MEAN_MOTION":13.1765028,"ECCENTRICITY":0.0001721,"INCLINATION":87.9138,"RA_OF_ASC_NODE":1.8457,"ARG_OF_PERICENTER":94.1596,"MEAN_ANOMALY":265.9732,"EPHEMERIS_TYPE":0,"NORAD_CAT_ID":55166,"ELEMENT_SET_NO":999,"REV_AT_EPOCH":17024,"BSTAR":0.000067338,"MEAN_MOTION_DOT":3.9e-7,"MEAN_MOTION_DDOT":0},{"OBJECT_NAME":"ONEWEB-0626","OBJECT_ID":"2023-004AD","EPOCH":"2026-07-07T10:11:38.787936","CLASSIFICATION_TYPE":"U","MEAN_MOTION":13.17648143,"ECCENTRICITY":0.0002101,"INCLINATION":87.9132,"RA_OF_ASC_NODE":1.8466,"ARG_OF_PERICENTER":99.4163,"MEAN_ANOMALY":260.7206,"EPHEMERIS_TYPE":0,"NORAD_CAT_ID":55167,"ELEMENT_SET_NO":999,"REV_AT_EPOCH":17024,"BSTAR":0.00088379,"MEAN_MOTION_DOT":0.00000356,"MEAN_MOTION_DDOT":0},{"OBJECT_NAME":"ONEWEB-0627","OBJECT_ID":"2023-004AE","EPOCH":"2026-07-07T09:54:36.516096","CLASSIFICATION_TYPE":"U","MEAN_MOTION":13.17647934,"ECCENTRICITY":0.0001883,"INCLINATION":87.9138,"RA_OF_ASC_NODE":1.8498,"ARG_OF_PERICENTER":77.0895,"MEAN_ANOMALY":283.0447,"EPHEMERIS_TYPE":0,"NORAD_CAT_ID":55168,"ELEMENT_SET_NO":999,"REV_AT_EPOCH":17024,"BSTAR":0.00015204,"MEAN_MOTION_DOT":7.2e-7,"MEAN_MOTION_DDOT":0},{"OBJECT_NAME":"ONEWEB-0628","OBJECT_ID":"2023-004AF","EPOCH":"2026-07-06T22:07:18.297120","CLASSIFICATION_TYPE":"U","MEAN_MOTION":13.12442032,"ECCENTRICITY":0.0001756,"INCLINATION":87.8961,"RA_OF_ASC_NODE":346.7285,"ARG_OF_PERICENTER":72.465,"MEAN_ANOMALY":287.6671,"EPHEMERIS_TYPE":0,"NORAD_CAT_ID":55169,"ELEMENT_SET_NO":999,"REV_AT_EPOCH":17062,"BSTAR":-0.00092842,"MEAN_MOTION_DOT":-0.00000321,"MEAN_MOTION_DDOT":0}]}
